[{"OBJECT_NAME":"GOES 18","OBJECT_ID":"2022-021A","EPOCH":"2026-03-04T03:06:57.676608","MEAN_MOTION":1.00271909,"ECCENTRICITY":6.38e-5,"INCLINATION":0.0295,"RA_OF_ASC_NODE":75.6636,"ARG_OF_PERICENTER":321.8586,"MEAN_ANOMALY":34.084,"EPHEMERIS_TYPE":0,"CLASSIFICATION_TYPE":"U","NORAD_CAT_ID":51850,"ELEMENT_SET_NO":999,"REV_AT_EPOCH":553,"BSTAR":0,"MEAN_MOTION_DOT":8.4e-7,"MEAN_MOTION_DDOT":0},{"OBJECT_NAME":"GOES 19","OBJECT_ID":"2024-119A","EPOCH":"2026-03-04T04:02:38.654016","MEAN_MOTION":1.00272004,"ECCENTRICITY":9.95e-5,"INCLINATION":0.017,"RA_OF_ASC_NODE":327.1044,"ARG_OF_PERICENTER":52.9626,"MEAN_ANOMALY":127.3116,"EPHEMERIS_TYPE":0,"CLASSIFICATION_TYPE":"U","NORAD_CAT_ID":60133,"ELEMENT_SET_NO":999,"REV_AT_EPOCH":591,"BSTAR":0,"MEAN_MOTION_DOT":-2.61e-6,"MEAN_MOTION_DDOT":0}]
